PROXIMA I               
1 43694U 18088E   22037.51103001  .00006617  00000+0  26869-3 0  9999
2 43694  85.0301  40.1001 0015869 232.7988 127.1807 15.24265307180010
PROXIMA II              
1 43696U 18088G   22037.51001088  .00006611  00000+0  26849-3 0  9995
2 43696  85.0301  40.1146 0015921 232.7629 127.2162 15.24257956180008
FACSAT-1                
1 43721U 18096C   22037.56162089  .00014716  00000+0  48517-3 0  9998
2 43721  97.3643 117.9638 0016340 156.2844 318.4340 15.31420221177919
CENTAURI-2              
1 43722U 18096D   22037.49017372  .00019238  00000+0  59672-3 0  9993
2 43722  97.3670 119.2924 0015468 153.8397 206.3630 15.33328865177975
INNOSAT-2               
1 43738U 18096V   22037.50746993  .00029140  00000+0  76270-3 0  9996
2 43738  97.3768 124.7794 0018955 150.0649 336.9930 15.38497727178310
SIRION PATHFINDER-2     
1 43759U 18099B   22037.48363667  .00001777  00000+0  16391-3 0  9996
2 43759  97.6380 107.6227 0013683 346.8520  13.2343 14.95844910173469
CORVUS BC4              
1 43767U 18099K   22037.51932553  .00001661  00000+0  15595-3 0  9992
2 43767  97.6340 106.3493 0011301 352.8739   7.2320 14.95251057173405
MOVE-II                 
1 43780U 18099Y   22037.48334497  .00004287  00000+0  38065-3 0  9990
2 43780  97.6415 108.0545 0012958 358.4333   1.6846 14.96611017173465
SPACEBEE-7              
1 43816U 18099BL  22037.47057065  .00003649  00000+0  32425-3 0  9997
2 43816  97.6424 108.7408 0012276 340.8879  19.1881 14.96686116173053
SPACEBEE-5              
1 43817U 18099BM  22037.43651314  .00006938  00000+0  58043-3 0  9999
2 43817  97.6553 110.8301 0012202 337.3807  22.6876 14.98727917173133
SPACEBEE-6              
1 43818U 18099BN  22037.42944137  .00003858  00000+0  33721-3 0  9991
2 43818  97.6469 109.3444 0012381 340.0792  19.9945 14.97295573173226
SHIELDS 1               
1 43850U 18104B   22037.29612175  .00003946  00000+0  16792-3 0  9990
2 43850  85.0310 139.1792 0015626  35.9025 324.3264 15.22548833174541
STF-1                   
1 43852U 18104D   22037.58209522  .00008350  00000+0  34150-3 0  9994
2 43852  85.0345 139.5524 0014847  47.1022 313.1465 15.24076074174593
ZACUBE-2                
1 43907U 18111AH  22037.62607772  .00004079  00000+0  16026-3 0  9993
2 43907  97.2087 288.6041 0020541 178.6643 268.8256 15.26045900173330
LUME 1                  
1 43908U 18111AJ  22037.42591402  .00008235  00000+0  30411-3 0  9996
2 43908  97.2090 289.4653 0019527 175.3636 184.7789 15.27813800173375
AOBA VELOX-IV           
1 43940U 19003J   22037.33756302  .00018939  00000+0  63929-3 0  9997
2 43940  97.1489  77.6233 0018933 254.4062 105.5090 15.30554700170036
MOVE-IIB                
1 44398U 19038N   22037.54950781  .00009321  00000+0  49317-3 0  9993
2 44398  97.6090   6.1695 0021553 219.0580 140.9098 15.15470717143196
SONATE                  
1 44400U 19038Q   22037.58943029  .00003275  00000+0  18656-3 0  9992
2 44400  97.6204   5.7870 0022863 221.8533 138.0953 15.13323469143132
LUCKY-7                 
1 44406U 19038W   22037.38834454  .00005565  00000+0  30910-3 0  9998
2 44406  97.6230   5.9621 0022456 219.9954 139.9625 15.13920581143129
BEESAT 9                
1 44412U 19038AC  22037.46830163  .00007079  00000+0  38516-3 0  9999
2 44412  97.6205   6.1719 0020138 224.1054 135.8572 15.14599689142850
JAISAT-1                
1 44419U 19038F   22037.42932141  .00006449  00000+0  34666-3 0  9993
2 44419  97.6213   6.8662 0019051 221.1252 138.8545 15.15082308143208
DUCHIFAT-3              
1 44854U 19089C   22037.41902771  .00003078  00000+0  24838-3 0  9992
2 44854  36.9646 156.5340 0008310 245.1542 114.8460 15.00080122118249
EYESAT-NANO             
1 44877U 19092E   22037.46130495  .00009478  00000+0  44628-3 0  9991
2 44877  97.4605 223.0445 0013793  93.0516 267.2298 15.19662030118458
ORBITAL FACTORY 2 (OF-2)
1 45113U 19071C   22037.13665471  .00019734  00000+0  50782-3 0  9997
2 45113  51.6413 342.2027 0011474  63.4572 296.7587 15.39179179113113
M2 PATHFINDER           
1 45727U 20037E   22037.28997914  .00001214  00000+0  12619-3 0  9999
2 45727  97.7224 215.2471 0013868 108.9852 251.2923 14.91625391 87278
NETSAT-4                
1 46504U 20068U   22037.55484829  .00002591  00000+0  19890-3 0  9990
2 46504  97.7120 337.7866 0013836  56.1169 304.1370 15.02602273 74384
NETSAT-3                
1 46505U 20068V   22037.56699254  .00003072  00000+0  23526-3 0  9998
2 46505  97.7110 337.7365 0012099  60.8442 299.4057 15.02568349 74398
NETSAT-1                
1 46506U 20068W   22037.57933429  .00003325  00000+0  25472-3 0  9998
2 46506  97.7082 337.6965 0010123  67.1285 293.1041 15.02509318 74398
NETSAT-2                
1 46507U 20068X   22037.58646841  .00002611  00000+0  20118-3 0  9998
2 46507  97.7094 337.7025 0009760  69.7048 290.5229 15.02481383 74345
SPOC                    
1 46921U 98067RR  22037.58159448  .00054529  00000+0  56589-3 0  9990
2 46921  51.6368 242.1746 0002329 217.3679 142.7154 15.64099482 71369
BOBCAT-1                
1 46922U 98067RS  22037.56313416  .00130301  00000+0  89121-3 0  9997
2 46922  51.6371 233.8261 0003544 234.3756 125.6913 15.73858677 71438
NEUTRON-1               
1 46923U 98067RT  22037.29627941  .00055584  00000+0  57963-3 0  9997
2 46923  51.6374 244.0239 0002226 222.7059 137.3763 15.63968714 71340
DESCENT                 
1 46927U 98067RX  22037.29297368  .00057423  00000+0  59367-3 0  9991
2 46927  51.6376 243.9994 0002089 238.0776 122.0015 15.64174461 71255
SAI-1 NANOCONNECT-2     
1 47701U 21015C   22037.46203214 -.00000073  00000+0  00000+0 0  9993
2 47701  97.4280 115.2609 0016964 193.8301 166.3600 15.24310224 52245
WARP-01                 
1 47924U 98067SA  22036.85717445  .00090567  00000+0  87466-3 0  9990
2 47924  51.6356 252.2961 0004678 233.5895 126.4670 15.65691399 51153
RSP-01                  
1 47925U 98067SB  22037.30083348  .00061311  00000+0  68767-3 0  9998
2 47925  51.6385 252.2986 0002989 187.8374 172.2574 15.62060215 51177
TAUSAT-1                
1 47926U 98067SC  22036.90111656  .00084477  00000+0  80459-3 0  9998
2 47926  51.6378 251.1035 0004070 190.9162 169.1746 15.66070867 51147
TSURU                   
1 47927U 98067SD  22037.32467550  .00053378  00000+0  63209-3 0  9993
2 47927  51.6376 253.2032 0002872 184.5710 175.5257 15.60709849 51165
STARS-EC                
1 47928U 98067SE  22037.07579109  .00105641  00000+0  95470-3 0  9996
2 47928  51.6368 250.7690 0005283 237.6476 122.4009 15.67270115 51158
MAYA-2                  
1 47929U 98067SF  22037.32051915  .00053946  00000+0  63933-3 0  9994
2 47929  51.6379 253.1737 0002879 181.7650 178.3334 15.60684305 51122
HIROGARI (OPUSAT-II)    
1 47930U 98067SG  22037.28435928  .00118366  00000+0  10207-2 0  9994
2 47930  51.6353 248.4217 0003818 198.6012 161.4846 15.68376831 51221
GUARANISAT-1            
1 47931U 98067SH  22037.31473616  .00053140  00000+0  62768-3 0  9993
2 47931  51.6390 253.1449 0002987 181.1503 178.9484 15.60777344 51161
SMOG-1                  
1 47964U 21022AJ  22037.47912885  .00006701  00000+0  43592-3 0  9994
2 47964  97.5421 300.4501 0018113 222.4230 137.5599 15.08168073 47135
MMSATS-1                
1 47976U 98067SJ  22037.55786621  .00016981  00000+0  27138-3 0  9995
2 47976  51.6423 259.2157 0002174 217.4655 142.6204 15.53278096 49885
BCCSAT-1                
1 48041U 21022AK  22037.46681011  .00005952  00000+0  39513-3 0  9999
2 48041  97.5436 300.1972 0014518 218.8213 141.1973 15.07518130 47096
RAMSAT                  
1 48850U 98067SL  22037.33108261  .00032492  00000+0  46235-3 0  9995
2 48850  51.6391 259.2138 0003172 271.6788  88.3840 15.56048709 36830
SOAR                    
1 48851U 98067SM  22037.55390140  .00188604  00000+0  11565-2 0  9993
2 48851  51.6320 247.1207 0005818 225.0438 135.0091 15.76165931 37052
BD-28                   
1 48867U 98067SN  22037.21721123  .00036953  00000+0  50983-3 0  9999
2 48867  51.6383 259.1981 0001557 303.2293  56.8550 15.56823720 35574
MIR-SAT 1               
1 48868U 98067SP  22037.57875532  .00108798  00000+0  10717-2 0  9990
2 48868  51.6360 253.3578 0003306 233.1293 126.9400 15.65120063 35712
1998-067SR              
1 49272U 98067SR  22037.06756352  .00033402  00000+0  50297-3 0  9999
2 49272  51.6390 263.4378 0005668 182.3077 177.7889 15.54479967 19145
1998-067SS              
1 49273U 98067SS  22037.09791410  .00044176  00000+0  63589-3 0  9995
2 49273  51.6387 262.8919 0005791 181.5261 178.5714 15.55577520 19151
1998-067ST              
1 49274U 98067ST  22037.42354570  .00044222  00000+0  63787-3 0  9997
2 49274  51.6387 261.3168 0005732 181.8115 178.2856 15.55521158 19204
CUAVA-1                 
1 49275U 98067SU  22037.35787037  .00035794  00000+0  52449-3 0  9995
2 49275  51.6410 261.6458 0006069 193.4055 154.2351 15.55189192 19137
